CZ-6A DEB               
1 54354U 22151CZ  22328.96030531  .00003691  00000+0  10383-2 0  9991
2 54354  98.8129 334.3307 0190446 280.2577  77.7183 14.36418286  1308
CZ-6A DEB               
1 54355U 22151DA  22328.95349398  .00117732  00000+0  58359-2 0  9992
2 54355  98.7993 335.3140 0299042 230.2443 127.2079 14.85979759  1342
CZ-6A DEB               
1 54356U 22151DB  22328.51765921  .00002019  00000+0  88758-3 0  9997
2 54356  98.9594 334.3382 0080384 294.2832  64.9965 14.22977468  1222
CZ-6A DEB               
1 54357U 22151DC  22328.49930208  .00206864  00000+0  69277-2 0  9995
2 54357  99.1625 336.8496 0320976 236.2299 120.7962 14.93071834  1285
CZ-6A DEB               
1 54358U 22151DD  22328.56567816  .00003297  00000+0  73636-3 0  9995
2 54358  98.5507 332.8650 0159578 240.5083 118.0114 14.49912828  1268
CZ-6A DEB               
1 54359U 22151DE  22328.92710875  .00005284  00000+0  12937-2 0  9995
2 54359  99.0782 335.7471 0212501 278.1635  79.5499 14.40190180  1288
CZ-6A DEB               
1 54360U 22151DF  22328.93645263  .00000709  00000+0  36943-3 0  9997
2 54360  98.6541 333.0519 0094132 316.7553  42.6258 14.15447150  1309
